OBJECT_NAME,OBJECT_ID,EPOCH,MEAN_MOTION,ECCENTRICITY,INCLINATION,RA_OF_ASC_NODE,ARG_OF_PERICENTER,MEAN_ANOMALY,EPHEMERIS_TYPE,CLASSIFICATION_TYPE,NORAD_CAT_ID,ELEMENT_SET_NO,REV_AT_EPOCH,BSTAR,MEAN_MOTION_DOT,MEAN_MOTION_DDOT
ONEWEB-0721,2023-068R,2026-06-13T19:27:40.851072,13.22469323,.00019187,86.6767,86.5939,77.9854,282.1494,0,U,56725,999,15749,.24211515E-3,.115E-5,0
ONEWEB-0015,2024-188A,2026-06-13T21:01:34.929408,13.11420234,.00022573,87.8890,21.7525,75.0977,285.0400,0,U,61594,999,8402,-.3045811E-3,-.95E-6,0
ONEWEB-0687,2024-188B,2026-06-13T14:03:36.851616,13.17648644,.0002367,87.9129,6.5933,88.5446,271.5957,0,U,61595,999,8542,.11436E-3,.57E-6,0
ONEWEB-0688,2024-188C,2026-06-13T22:02:19.190688,13.17648292,.0002796,87.9129,6.5270,67.7044,292.4384,0,U,61596,999,8546,-.6761852E-5,.1E-6,0
ONEWEB-0689,2024-188D,2026-06-13T20:00:33.261984,13.11417114,.00020385,87.8903,21.7183,91.9605,268.1756,0,U,61597,999,8401,.9761628E-3,.359E-5,0
ONEWEB-0690,2024-188E,2026-06-13T20:15:12.134016,13.11414375,.00013123,87.8896,21.7281,70.1466,289.9804,0,U,61598,999,8419,-.76482954E-4,-.14E-6,0
ONEWEB-0691,2024-188F,2026-06-13T20:07:53.596992,13.11415236,.00021691,87.8906,21.6375,80.1568,279.9805,0,U,61599,999,8404,.39739572E-3,.154E-5,0
ONEWEB-0692,2024-188G,2026-06-13T20:37:09.825600,13.11415471,.00017625,87.8888,21.7473,111.7121,248.4195,0,U,61600,999,8403,-.16144863E-2,-.559E-5,0
ONEWEB-0693,2024-188H,2026-06-13T22:19:19.381152,13.17647971,.00013942,87.9125,6.5447,63.9835,296.1440,0,U,61601,999,8545,.12242112E-3,.6E-6,0
ONEWEB-0695,2024-188J,2026-06-13T20:03:00.447840,13.11414524,.00020004,87.8887,21.7439,100.6550,259.4804,0,U,61602,999,8402,.79167809E-3,.293E-5,0
ONEWEB-0697,2024-188K,2026-06-13T20:49:22.305792,13.11418329,.00016475,87.8890,21.7282,109.7447,250.3859,0,U,61603,999,8401,-.1618721E-2,-.561E-5,0
ONEWEB-0698,2024-188L,2026-06-13T20:17:38.365152,13.11414030,.00007815,87.8886,21.7463,113.1499,246.9711,0,U,61604,999,8403,-.43936417E-3,-.143E-5,0
ONEWEB-0699,2024-188M,2026-06-13T22:22:17.639040,13.10375355,.00015085,87.8835,36.9146,103.1198,257.0098,0,U,61605,999,8288,.15713715E-2,.561E-5,0
ONEWEB-0700,2024-188N,2026-06-13T22:24:41.008608,13.10375574,.00019006,87.8857,36.8227,103.6698,256.4641,0,U,61606,999,8287,.16544421E-2,.59E-5,0
ONEWEB-0701,2024-188P,2026-06-13T20:58:37.812864,13.10370569,.00015091,87.8837,36.9252,110.4696,249.6593,0,U,61607,999,8287,.13468284E-2,.483E-5,0
ONEWEB-0702,2024-188Q,2026-06-13T21:23:34.786176,13.11419400,.00019257,87.8908,21.6426,116.5168,243.6158,0,U,61608,999,8405,.12669745E-2,.462E-5,0
ONEWEB-0704,2024-188R,2026-06-13T22:31:51.687552,13.10373777,.00021116,87.8848,36.9018,113.5576,246.5773,0,U,61609,999,8286,.1700272E-2,.606E-5,0
ONEWEB-0705,2024-188S,2026-06-13T22:39:01.644192,13.10388618,.0002612,87.8845,36.9062,99.7251,260.4171,0,U,61610,999,7503,.85111708E-2,.2985E-4,0
ONEWEB-0706,2024-188T,2026-06-13T22:17:30.512832,13.10376468,.00020221,87.8842,36.9147,99.8004,260.3352,0,U,61611,999,8295,.10414282E-2,.376E-5,0
ONEWEB-0707,2024-188U,2026-06-13T22:27:04.595040,13.10374615,.00019267,87.8845,36.9070,99.6111,260.5234,0,U,61612,999,8289,.16843893E-2,.601E-5,0
ONEWEB-0708,2024-188V,2026-06-13T21:03:24.550272,13.10369966,.00023489,87.8832,36.9370,84.8562,275.2833,0,U,61613,999,8286,.96022884E-3,.348E-5,0
