[
  {
    "name": "ONEWEB-0721",
    "noradId": "56725",
    "line1": "1 56725U 23068R   26164.81088948  .00000115  00000+0  24212-3 0  9999",
    "line2": "2 56725  86.6767  86.5939 0001918  77.9854 282.1494 13.22469323157497"
  },
  {
    "name": "ONEWEB-0015",
    "noradId": "61594",
    "line1": "1 61594U 24188A   26164.87609872 -.00000095  00000+0 -30458-3 0  9992",
    "line2": "2 61594  87.8890  21.7525 0002257  75.0977 285.0400 13.11420234 84024"
  },
  {
    "name": "ONEWEB-0687",
    "noradId": "61595",
    "line1": "1 61595U 24188B   26164.58584319  .00000057  00000+0  11436-3 0  9990",
    "line2": "2 61595  87.9129   6.5933 0002367  88.5446 271.5957 13.17648644 85422"
  },
  {
    "name": "ONEWEB-0688",
    "noradId": "61596",
    "line1": "1 61596U 24188C   26164.91827767  .00000010  00000+0 -67619-5 0  9991",
    "line2": "2 61596  87.9129   6.5270 0002796  67.7044 292.4384 13.17648292 85465"
  },
  {
    "name": "ONEWEB-0689",
    "noradId": "61597",
    "line1": "1 61597U 24188D   26164.83371831  .00000359  00000+0  97616-3 0  9992",
    "line2": "2 61597  87.8903  21.7183 0002038  91.9605 268.1756 13.11417114 84012"
  },
  {
    "name": "ONEWEB-0690",
    "noradId": "61598",
    "line1": "1 61598U 24188E   26164.84389044 -.00000014  00000+0 -76483-4 0  9999",
    "line2": "2 61598  87.8896  21.7281 0001312  70.1466 289.9804 13.11414375 84191"
  },
  {
    "name": "ONEWEB-0691",
    "noradId": "61599",
    "line1": "1 61599U 24188F   26164.83881478  .00000154  00000+0  39740-3 0  9994",
    "line2": "2 61599  87.8906  21.6375 0002169  80.1568 279.9805 13.11415236 84043"
  },
  {
    "name": "ONEWEB-0692",
    "noradId": "61600",
    "line1": "1 61600U 24188G   26164.85914150 -.00000559  00000+0 -16145-2 0  9997",
    "line2": "2 61600  87.8888  21.7473 0001762 111.7121 248.4195 13.11415471 84032"
  },
  {
    "name": "ONEWEB-0693",
    "noradId": "61601",
    "line1": "1 61601U 24188H   26164.93008543  .00000060  00000+0  12242-3 0  9997",
    "line2": "2 61601  87.9125   6.5447 0001394  63.9835 296.1440 13.17647971 85459"
  },
  {
    "name": "ONEWEB-0695",
    "noradId": "61602",
    "line1": "1 61602U 24188J   26164.83542185  .00000293  00000+0  79168-3 0  9990",
    "line2": "2 61602  87.8887  21.7439 0002000 100.6550 259.4804 13.11414524 84020"
  },
  {
    "name": "ONEWEB-0697",
    "noradId": "61603",
    "line1": "1 61603U 24188K   26164.86761928 -.00000561  00000+0 -16187-2 0  9993",
    "line2": "2 61603  87.8890  21.7282 0001647 109.7447 250.3859 13.11418329 84018"
  },
  {
    "name": "ONEWEB-0698",
    "noradId": "61604",
    "line1": "1 61604U 24188L   26164.84558293 -.00000143  00000+0 -43936-3 0  9990",
    "line2": "2 61604  87.8886  21.7463 0000781 113.1499 246.9711 13.11414030 84034"
  },
  {
    "name": "ONEWEB-0699",
    "noradId": "61605",
    "line1": "1 61605U 24188M   26164.93214860  .00000561  00000+0  15714-2 0  9994",
    "line2": "2 61605  87.8835  36.9146 0001508 103.1198 257.0098 13.10375355 82885"
  },
  {
    "name": "ONEWEB-0700",
    "noradId": "61606",
    "line1": "1 61606U 24188N   26164.93380797  .00000590  00000+0  16544-2 0  9992",
    "line2": "2 61606  87.8857  36.8227 0001900 103.6698 256.4641 13.10375574 82874"
  },
  {
    "name": "ONEWEB-0701",
    "noradId": "61607",
    "line1": "1 61607U 24188P   26164.87404876  .00000483  00000+0  13468-2 0  9994",
    "line2": "2 61607  87.8837  36.9252 0001509 110.4696 249.6593 13.10370569 82870"
  },
  {
    "name": "ONEWEB-0702",
    "noradId": "61608",
    "line1": "1 61608U 24188Q   26164.89137484  .00000462  00000+0  12670-2 0  9996",
    "line2": "2 61608  87.8908  21.6426 0001925 116.5168 243.6158 13.11419400 84059"
  },
  {
    "name": "ONEWEB-0704",
    "noradId": "61609",
    "line1": "1 61609U 24188R   26164.93879268  .00000606  00000+0  17003-2 0  9990",
    "line2": "2 61609  87.8848  36.9018 0002111 113.5576 246.5773 13.10373777 82864"
  },
  {
    "name": "ONEWEB-0705",
    "noradId": "61610",
    "line1": "1 61610U 24188S   26164.94376903  .00002985  00000+0  85112-2 0  9999",
    "line2": "2 61610  87.8845  36.9062 0002612  99.7251 260.4171 13.10388618 75031"
  },
  {
    "name": "ONEWEB-0706",
    "noradId": "61611",
    "line1": "1 61611U 24188T   26164.92882538  .00000376  00000+0  10414-2 0  9999",
    "line2": "2 61611  87.8842  36.9147 0002022  99.8004 260.3352 13.10376468 82954"
  },
  {
    "name": "ONEWEB-0707",
    "noradId": "61612",
    "line1": "1 61612U 24188U   26164.93546985  .00000601  00000+0  16844-2 0  9998",
    "line2": "2 61612  87.8845  36.9070 0001926  99.6111 260.5234 13.10374615 82898"
  },
  {
    "name": "ONEWEB-0708",
    "noradId": "61613",
    "line1": "1 61613U 24188V   26164.87736748  .00000348  00000+0  96023-3 0  9996",
    "line2": "2 61613  87.8832  36.9370 0002348  84.8562 275.2833 13.10369966 82861"
  }
]